[
    {
        "Altitude(m)": 566854.1383307598,
        "Argument of Periapsis(deg)": -0.037671934638287344,
        "Eccentricity": 0.0,
        "Inclination(deg)": 97.0,
        "Latitude(deg)": 27.33271353360778,
        "Longitude(deg)": -130.30981667765596,
        "Mean Anomaly(deg)": 152.52363878197917,
        "RAAN(deg)": 150.00991175603087,
        "Satellite Name": "Starlink Shell 3 1889",
        "Satellite Number": 1889,
        "Semi-Major Axis(m)": 6938478.169268562,
        "Time(s)": 950
    },
    {
        "Altitude(m)": 566766.9101470539,
        "Argument of Periapsis(deg)": -0.03806848131869037,
        "Eccentricity": 0.0,
        "Inclination(deg)": 97.0,
        "Latitude(deg)": 26.71056375673886,
        "Longitude(deg)": -130.4474156841477,
        "Mean Anomaly(deg)": 153.14911497968416,
        "RAAN(deg)": 150.01001609030487,
        "Satellite Name": "Starlink Shell 3 1889",
        "Satellite Number": 1889,
        "Semi-Major Axis(m)": 6938478.169268562,
        "Time(s)": 960
    },
    {
        "Altitude(m)": 566682.6175494879,
        "Argument of Periapsis(deg)": -0.0384650279990934,
        "Eccentricity": 0.0,
        "Inclination(deg)": 97.0,
        "Latitude(deg)": 26.088293930199452,
        "Longitude(deg)": -130.58398060670967,
        "Mean Anomaly(deg)": 153.7745911773892,
        "RAAN(deg)": 150.01012042457887,
        "Satellite Name": "Starlink Shell 3 1889",
        "Satellite Number": 1889,
        "Semi-Major Axis(m)": 6938478.169268562,
        "Time(s)": 970
    },
    {
        "Altitude(m)": 566601.3273268924,
        "Argument of Periapsis(deg)": -0.03886157467949641,
        "Eccentricity": 0.0,
        "Inclination(deg)": 97.0,
        "Latitude(deg)": 25.465907609702086,
        "Longitude(deg)": -130.71954999491334,
        "Mean Anomaly(deg)": 154.4000673750943,
        "RAAN(deg)": 150.0102247588529,
        "Satellite Name": "Starlink Shell 3 1889",
        "Satellite Number": 1889,
        "Semi-Major Axis(m)": 6938478.169268562,
        "Time(s)": 980
    },
    {
        "Altitude(m)": 566523.1049755693,
        "Argument of Periapsis(deg)": -0.03925812135989944,
        "Eccentricity": 0.0,
        "Inclination(deg)": 97.0,
        "Latitude(deg)": 24.843408305889504,
        "Longitude(deg)": -130.8541606435048,
        "Mean Anomaly(deg)": 155.02554357279928,
        "RAAN(deg)": 150.0103290931269,
        "Satellite Name": "Starlink Shell 3 1889",
        "Satellite Number": 1889,
        "Semi-Major Axis(m)": 6938478.169268562,
        "Time(s)": 990
    }
]